[{"OBJECT_NAME":"STARLINK-3985","OBJECT_ID":"2022-052AY","EPOCH":"2026-03-09T22:24:27.157824","MEAN_MOTION":15.08836561,"ECCENTRICITY":0.00013374,"INCLINATION":53.2165,"RA_OF_ASC_NODE":258.0268,"ARG_OF_PERICENTER":94.1052,"MEAN_ANOMALY":266.0093,"EPHEMERIS_TYPE":0,"CLASSIFICATION_TYPE":"U","NORAD_CAT_ID":52644,"ELEMENT_SET_NO":999,"REV_AT_EPOCH":21116,"BSTAR":5.842257e-6,"MEAN_MOTION_DOT":-1.95e-6,"MEAN_MOTION_DDOT":0},{"OBJECT_NAME":"OBJECT D","OBJECT_ID":"2018-099D","EPOCH":"2026-03-09T21:55:11.400096","MEAN_MOTION":15.0608919,"ECCENTRICITY":0.00104801,"INCLINATION":97.4323,"RA_OF_ASC_NODE":113.3477,"ARG_OF_PERICENTER":333.2621,"MEAN_ANOMALY":26.8065,"EPHEMERIS_TYPE":0,"CLASSIFICATION_TYPE":"U","NORAD_CAT_ID":43761,"ELEMENT_SET_NO":999,"REV_AT_EPOCH":39716,"BSTAR":0.0002280609,"MEAN_MOTION_DOT":3.276e-5,"MEAN_MOTION_DDOT":0}]
